{
  "type": "FeatureCollection",
  "features": [
    {
      "type": "Feature",
      "properties": {
        "norad_id": 66505,
        "name": "STARLINK-34766",
        "group": "last-30-days",
        "lat": 41.40226333160064,
        "lon": -141.3205605328728,
        "alt_km": 409.5021963270383,
        "timestamp": "2025-12-08T21:31:03.447009+00:00",
        "meta_object_name": "STARLINK-34766",
        "meta_object_id": "2025-263W",
        "meta_epoch": "2025-12-08T14:00:01.999872",
        "meta_mean_motion": 15.50628376,
        "meta_eccentricity": 0.00017401,
        "meta_inclination": 43.0001,
        "meta_ra_of_asc_node": 149.3972,
        "meta_arg_of_pericenter": 286.6918,
        "meta_mean_anomaly": 198.7809,
        "meta_ephemeris_type": 0,
        "meta_classification_type": "U",
        "meta_norad_cat_id": 66505,
        "meta_element_set_no": 999,
        "meta_rev_at_epoch": 496,
        "meta_bstar": -0.0018139384,
        "meta_mean_motion_dot": -0.00105523,
        "meta_mean_motion_ddot": 0,
        "tle_line1": "1 66505U 25263W   25342.58335648 -.00105523  00000+0 -18139-2 0  9999",
        "tle_line2": "2 66505  43.0001 149.3972 0001740 286.6918 198.7809 15.50628376  4963"
      },
      "geometry": {
        "type": "Point",
        "coordinates": [
          -141.3205605328728,
          41.40226333160064
        ]
      }
    },
    {
      "type": "Feature",
      "properties": {
        "norad_id": 66506,
        "name": "STARLINK-34765",
        "group": "last-30-days",
        "lat": 41.7976792071248,
        "lon": -138.8180886893173,
        "alt_km": 409.3860814540958,
        "timestamp": "2025-12-08T21:31:03.447019+00:00",
        "meta_object_name": "STARLINK-34765",
        "meta_object_id": "2025-263X",
        "meta_epoch": "2025-12-08T14:00:01.999872",
        "meta_mean_motion": 15.50628732,
        "meta_eccentricity": 0.00016224,
        "meta_inclination": 42.9999,
        "meta_ra_of_asc_node": 149.393,
        "meta_arg_of_pericenter": 287.0013,
        "meta_mean_anomaly": 200.3846,
        "meta_ephemeris_type": 0,
        "meta_classification_type": "U",
        "meta_norad_cat_id": 66506,
        "meta_element_set_no": 999,
        "meta_rev_at_epoch": 496,
        "meta_bstar": -0.0017843534,
        "meta_mean_motion_dot": -0.0010383,
        "meta_mean_motion_ddot": 0,
        "tle_line1": "1 66506U 25263X   25342.58335648 -.00103830  00000+0 -17844-2 0  9991",
        "tle_line2": "2 66506  42.9999 149.3930 0001622 287.0013 200.3846 15.50628732  4969"
      },
      "geometry": {
        "type": "Point",
        "coordinates": [
          -138.8180886893173,
          41.7976792071248
        ]
      }
    },
    {
      "type": "Feature",
      "properties": {
        "norad_id": 66507,
        "name": "STARLINK-34767",
        "group": "last-30-days",
        "lat": 42.42364248242873,
        "lon": -133.7197414521973,
        "alt_km": 409.2811009820971,
        "timestamp": "2025-12-08T21:31:03.447032+00:00",
        "meta_object_name": "STARLINK-34767",
        "meta_object_id": "2025-263Y",
        "meta_epoch": "2025-12-08T14:00:01.999872",
        "meta_mean_motion": 15.5059559,
        "meta_eccentricity": 0.00013241,
        "meta_inclination": 43.0001,
        "meta_ra_of_asc_node": 149.3828,
        "meta_arg_of_pericenter": 266.5088,
        "meta_mean_anomaly": 224.7471,
        "meta_ephemeris_type": 0,
        "meta_classification_type": "U",
        "meta_norad_cat_id": 66507,
        "meta_element_set_no": 999,
        "meta_rev_at_epoch": 496,
        "meta_bstar": -0.0012762334,
        "meta_mean_motion_dot": -0.00074546,
        "meta_mean_motion_ddot": 0,
        "tle_line1": "1 66507U 25263Y   25342.58335648 -.00074546  00000+0 -12762-2 0  9997",
        "tle_line2": "2 66507  43.0001 149.3828 0001324 266.5088 224.7471 15.50595590  4964"
      },
      "geometry": {
        "type": "Point",
        "coordinates": [
          -133.7197414521973,
          42.42364248242873
        ]
      }
    },
    {
      "type": "Feature",
      "properties": {
        "norad_id": 66508,
        "name": "STARLINK-35608",
        "group": "last-30-days",
        "lat": 42.926188485853196,
        "lon": -125.96432234375364,
        "alt_km": 409.2803331146397,
        "timestamp": "2025-12-08T21:31:03.447045+00:00",
        "meta_object_name": "STARLINK-35608",
        "meta_object_id": "2025-263Z",
        "meta_epoch": "2025-12-08T14:00:01.999872",
        "meta_mean_motion": 15.50562586,
        "meta_eccentricity": 0.00016882,
        "meta_inclination": 43,
        "meta_ra_of_asc_node": 149.3688,
        "meta_arg_of_pericenter": 287.4202,
        "meta_mean_anomaly": 209.5573,
        "meta_ephemeris_type": 0,
        "meta_classification_type": "U",
        "meta_norad_cat_id": 66508,
        "meta_element_set_no": 999,
        "meta_rev_at_epoch": 496,
        "meta_bstar": 0.00038687475,
        "meta_mean_motion_dot": 0.00022406,
        "meta_mean_motion_ddot": 0,
        "tle_line1": "1 66508U 25263Z   25342.58335648  .00022406  00000+0  38687-3 0  9999",
        "tle_line2": "2 66508  43.0000 149.3688 0001688 287.4202 209.5573 15.50562586  4964"
      },
      "geometry": {
        "type": "Point",
        "coordinates": [
          -125.96432234375364,
          42.926188485853196
        ]
      }
    },
    {
      "type": "Feature",
      "properties": {
        "norad_id": 66509,
        "name": "STARLINK-35598",
        "group": "last-30-days",
        "lat": 42.76543264819038,
        "lon": -115.47766318926976,
        "alt_km": 409.30726659497486,
        "timestamp": "2025-12-08T21:31:03.447055+00:00",
        "meta_object_name": "STARLINK-35598",
        "meta_object_id": "2025-263AA",
        "meta_epoch": "2025-12-08T14:00:01.999872",
        "meta_mean_motion": 15.50583105,
        "meta_eccentricity": 0.00014453,
        "meta_inclination": 43,
        "meta_ra_of_asc_node": 149.3486,
        "meta_arg_of_pericenter": 264.5919,
        "meta_mean_anomaly": 240.0895,
        "meta_ephemeris_type": 0,
        "meta_classification_type": "U",
        "meta_norad_cat_id": 66509,
        "meta_element_set_no": 999,
        "meta_rev_at_epoch": 496,
        "meta_bstar": -0.00096032447,
        "meta_mean_motion_dot": -0.00056284,
        "meta_mean_motion_ddot": 0,
        "tle_line1": "1 66509U 25263AA  25342.58335648 -.00056284  00000+0 -96032-3 0  9991",
        "tle_line2": "2 66509  43.0000 149.3486 0001445 264.5919 240.0895 15.50583105  4960"
      },
      "geometry": {
        "type": "Point",
        "coordinates": [
          -115.47766318926976,
          42.76543264819038
        ]
      }
    },
    {
      "type": "Feature",
      "properties": {
        "norad_id": 66510,
        "name": "STARLINK-35600",
        "group": "last-30-days",
        "lat": 42.97637869082228,
        "lon": -123.31070527085589,
        "alt_km": 409.19604188801986,
        "timestamp": "2025-12-08T21:31:03.447066+00:00",
        "meta_object_name": "STARLINK-35600",
        "meta_object_id": "2025-263AB",
        "meta_epoch": "2025-12-08T14:00:01.999872",
        "meta_mean_motion": 15.50595216,
        "meta_eccentricity": 0.00013174,
        "meta_inclination": 42.9999,
        "meta_ra_of_asc_node": 149.3627,
        "meta_arg_of_pericenter": 267.6072,
        "meta_mean_anomaly": 231.319,
        "meta_ephemeris_type": 0,
        "meta_classification_type": "U",
        "meta_norad_cat_id": 66510,
        "meta_element_set_no": 999,
        "meta_rev_at_epoch": 496,
        "meta_bstar": -0.0012437592,
        "meta_mean_motion_dot": -0.00072674,
        "meta_mean_motion_ddot": 0,
        "tle_line1": "1 66510U 25263AB  25342.58335648 -.00072674  00000+0 -12438-2 0  9991",
        "tle_line2": "2 66510  42.9999 149.3627 0001317 267.6072 231.3190 15.50595216  4963"
      },
      "geometry": {
        "type": "Point",
        "coordinates": [
          -123.31070527085589,
          42.97637869082228
        ]
      }
    },
    {
      "type": "Feature",
      "properties": {
        "norad_id": 66511,
        "name": "STARLINK-35444",
        "group": "last-30-days",
        "lat": 42.898017561829334,
        "lon": -118.14980901974724,
        "alt_km": 409.2536058783462,
        "timestamp": "2025-12-08T21:31:03.447078+00:00",
        "meta_object_name": "STARLINK-35444",
        "meta_object_id": "2025-263AC",
        "meta_epoch": "2025-12-08T14:00:01.999872",
        "meta_mean_motion": 15.50513491,
        "meta_eccentricity": 0.00015535,
        "meta_inclination": 43.0001,
        "meta_ra_of_asc_node": 149.3535,
        "meta_arg_of_pericenter": 280.785,
        "meta_mean_anomaly": 221.9494,
        "meta_ephemeris_type": 0,
        "meta_classification_type": "U",
        "meta_norad_cat_id": 66511,
        "meta_element_set_no": 999,
        "meta_rev_at_epoch": 496,
        "meta_bstar": 0.0017120789,
        "meta_mean_motion_dot": 0.00101169,
        "meta_mean_motion_ddot": 0,
        "tle_line1": "1 66511U 25263AC  25342.58335648  .00101169  00000+0  17121-2 0  9996",
        "tle_line2": "2 66511  43.0001 149.3535 0001553 280.7850 221.9494 15.50513491  4967"
      },
      "geometry": {
        "type": "Point",
        "coordinates": [
          -118.14980901974724,
          42.898017561829334
        ]
      }
    }
  ]
}